LEMUR-2-BALTO           
1 63395U 25052BH  26068.69493058  .00007621  00000+0  63456-3 0  9998
2 63395  97.6978 323.5166 0002279 359.2852   0.8367 14.98934076 53850
STARLINK-34669          
1 64811U 25150X   26068.57857451 -.00000073  00000+0  17258-5 0  9995
2 64811  70.0020 134.5952 0004017 268.7258  91.3441 14.98326295 36505
